STARLINK-37615          
1 69030U 26101F   26132.83335648 -.02100365  00000+0 -92972-2 0  9991
2 69030  97.2889 346.9404 0001307 110.5413 217.3917 15.87396146  2281
