{
  "norad_id": 69030,
  "name": "STARLINK-37615",
  "history": [
    {
      "epoch": "2026-05-12T20:00:01.999008Z",
      "apogee_km": 310.4603462168998,
      "perigee_km": 308.7121753565307,
      "latitude_deg": -32.063159873584034,
      "longitude_deg": -179.1005842408234,
      "height_km": 322.493678497493,
      "semi_major_axis_km": 6687.723260786715,
      "eccentricity": 0.0001307,
      "inclination_deg": 97.2889,
      "raan_deg": 346.9404,
      "arg_perigee_deg": 110.5413,
      "mean_anomaly_deg": 217.3917,
      "mean_motion_rev_day": 15.87396146
    }
  ]
}